     3.02           N: GNSS NAV DATA    R: GLONASS          RINEX VERSION / TYPE
Spider v7.5.1.8670  SMO                 20220126 002408 UTC PGM / RUN BY / DATE
GLUT -9.3132257462D-10 0.000000000D+00      0    0          TIME SYSTEM CORR
    18    18  2185     7                                    LEAP SECONDS
                                                            END OF HEADER
R24 2022 01 25 00 45 00 7.714703679085D-05 1.818989403546D-12 1.746000000000D+05
     1.752530419922D+04 8.264923095703D-01 9.313225746155D-10 0.000000000000D+00
     1.655760839844D+04 8.017663955688D-01 2.793967723846D-09 2.000000000000D+00
     8.336622070313D+03-3.339715003967D+00-9.313225746155D-10 0.000000000000D+00
R08 2022 01 25 00 45 00-6.322842091322D-05 0.000000000000D+00 1.746000000000D+05
    -1.462185693359D+04-2.411436080933D+00 9.313225746155D-10 0.000000000000D+00
     1.071967968750D+04 4.542417526245D-01-0.000000000000D+00 6.000000000000D+00
     1.798326416016D+04-2.240660667419D+00-2.793967723846D-09 0.000000000000D+00
R12 2022 01 25 00 45 00 2.977587282658D-04 2.728484105319D-12 1.746000000000D+05
    -1.432459960938D+03-5.662260055542D-01 9.313225746155D-10 0.000000000000D+00
     2.150251513672D+04 1.784160614014D+00 2.793967723846D-09-1.000000000000D+00
    -1.360756396484D+04 2.876885414124D+00 0.000000000000D+00 0.000000000000D+00
R10 2022 01 25 00 45 00-7.919780910015D-05-0.000000000000D+00 1.746000000000D+05
    -1.355583984375D+04 1.014804840088D+00 9.313225746155D-10 0.000000000000D+00
     9.647241210938D+03-2.446171760559D+00-9.313225746155D-10-7.000000000000D+00
     1.929091845703D+04 1.942247390747D+00-2.793967723846D-09 0.000000000000D+00
R01 2022 01 25 00 45 00 7.100403308868D-06-0.000000000000D+00 1.746000000000D+05
     2.425848144531D+03-3.103174209595D+00 9.313225746155D-10 0.000000000000D+00
     1.078997656250D+04 5.205459594727D-01 0.000000000000D+00 1.000000000000D+00
     2.298545019531D+04 8.400535583496D-02-2.793967723846D-09 0.000000000000D+00
R23 2022 01 25 00 45 00-2.792570739985D-05-9.094947017729D-13 1.746000000000D+05
     1.245526513672D+04-3.650121688843D-01 9.313225746155D-10 0.000000000000D+00
     2.124033398438D+04-8.725080490112D-01 3.725290298462D-09 3.000000000000D+00
    -6.673767578125D+03-3.458176612854D+00 0.000000000000D+00 0.000000000000D+00
R07 2022 01 25 00 45 00 3.100465983152D-05 0.000000000000D+00 1.746000000000D+05
    -2.466427294922D+04-4.642610549927D-01 0.000000000000D+00 0.000000000000D+00
     5.299395996094D+03 2.302293777466D-01-9.313225746155D-10 5.000000000000D+00
     3.628723632813D+03-3.531315803528D+00-9.313225746155D-10 0.000000000000D+00
R08 2022 01 25 01 15 00-6.322748959064D-05 0.000000000000D+00 1.764000000000D+05
    -1.835555029297D+04-1.708585739136D+00 0.000000000000D+00 0.000000000000D+00
     1.172236083984D+04 6.232538223267D-01-9.313225746155D-10 6.000000000000D+00
     1.330881396484D+04-2.919714927673D+00-1.862645149231D-09 0.000000000000D+00
R24 2022 01 25 01 15 00 7.714983075857D-05 1.818989403546D-12 1.764000000000D+05
     1.859893505859D+04 3.282299041748D-01 1.862645149231D-09 0.000000000000D+00
     1.732752880859D+04 7.115077972412D-02 2.793967723846D-09 2.000000000000D+00
     2.080503906250D+03-3.566408157349D+00-0.000000000000D+00 0.000000000000D+00
R12 2022 01 25 01 15 00 2.977643162012D-04 2.728484105319D-12 1.764000000000D+05
    -2.028503417969D+03-1.228303909302D-01 1.862645149231D-09 0.000000000000D+00
     2.412670703125D+04 1.097387313843D+00 1.862645149231D-09-1.000000000000D+00
    -7.968878906250D+03 3.347519874573D+00-0.000000000000D+00 0.000000000000D+00
R01 2022 01 25 01 15 00 7.100403308868D-06-0.000000000000D+00 1.764000000000D+05
    -3.020236328125D+03-2.899383544922D+00 9.313225746155D-10 0.000000000000D+00
     1.211168310547D+04 9.316558837891D-01-0.000000000000D+00 1.000000000000D+00
     2.224630371094D+04-8.999242782593D-01-2.793967723846D-09 0.000000000000D+00
R10 2022 01 25 01 15 00-7.919967174530D-05-0.000000000000D+00 1.764000000000D+05
    -1.195466308594D+04 7.340803146362D-01 0.000000000000D+00 0.000000000000D+00
     4.776513671875D+03-2.925871849060D+00-9.313225746155D-10-7.000000000000D+00
     2.199332324219D+04 1.041038513184D+00-2.793967723846D-09 0.000000000000D+00
R07 2022 01 25 01 15 00 3.100465983152D-05-0.000000000000D+00 1.764000000000D+05
    -2.470051855469D+04 4.165048599243D-01-0.000000000000D+00 0.000000000000D+00
     5.588463378906D+03 5.062294006348D-02-9.313225746155D-10 5.000000000000D+00
    -2.785966308594D+03-3.549688339233D+00-0.000000000000D+00 0.000000000000D+00
R08 2022 01 25 01 45 00-6.322748959064D-05-0.000000000000D+00 1.782000000000D+05
    -2.070185546875D+04-8.881034851074D-01 0.000000000000D+00 0.000000000000D+00
     1.281874072266D+04 5.526266098022D-01-9.313225746155D-10 6.000000000000D+00
     7.607282226563D+03-3.374352455139D+00-9.313225746155D-10 0.000000000000D+00
R12 2022 01 25 01 45 00 2.977699041367D-04 2.728484105319D-12 1.782000000000D+05
    -1.992240234375D+03 1.258440017700D-01 1.862645149231D-09 0.000000000000D+00
     2.535794287109D+04 2.528772354126D-01 9.313225746155D-10-1.000000000000D+00
    -1.712616699219D+03 3.558631896973D+00-9.313225746155D-10 0.000000000000D+00
R01 2022 01 25 01 45 00 7.100403308868D-06-0.000000000000D+00 1.782000000000D+05
    -7.852097656250D+03-2.430536270142D+00 9.313225746155D-10 0.000000000000D+00
     1.405633447266D+04 1.197570800781D+00-9.313225746155D-10 1.000000000000D+00
     1.978763378906D+04-1.814185142517D+00-2.793967723846D-09 0.000000000000D+00
R10 2022 01 25 01 45 00-7.920060306787D-05-0.000000000000D+00 1.782000000000D+05
    -1.099537792969D+04 3.170852661133D-01-0.000000000000D+00 0.000000000000D+00
    -7.228808593750D+02-3.135252952576D+00-1.862645149231D-09-7.000000000000D+00
     2.299082177734D+04 6.029987335205D-02-1.862645149231D-09 0.000000000000D+00
R07 2022 01 25 01 45 00 3.100465983152D-05-0.000000000000D+00 1.782000000000D+05
    -2.322592333984D+04 1.196083068848D+00-9.313225746155D-10 0.000000000000D+00
     5.347280761719D+03-3.514881134033D-01-9.313225746155D-10 5.000000000000D+00
    -8.984372558594D+03-3.292488098145D+00 0.000000000000D+00 0.000000000000D+00
R02 2022 01 25 01 45 00 5.075624212623D-04 9.094947017729D-13 1.786800000000D+05
     1.231965820313D+04-2.740861892700D+00 9.313225746155D-10 0.000000000000D+00
     5.835783203125D+03 1.087193489075D+00 0.000000000000D+00-4.000000000000D+00
     2.161461962891D+04 1.264929771423D+00-2.793967723846D-09 0.000000000000D+00
R02 2022 01 25 02 15 00 5.075652152300D-04 9.094947017729D-13 1.800000000000D+05
     7.362407714844D+03-2.718063354492D+00 9.313225746155D-10 0.000000000000D+00
     8.246836425781D+03 1.577250480652D+00-0.000000000000D+00-4.000000000000D+00
     2.303107080078D+04 2.986068725586D-01-2.793967723846D-09 0.000000000000D+00
R08 2022 01 25 02 15 00-6.322842091322D-05-0.000000000000D+00 1.800000000000D+05
    -2.155067041016D+04-6.412887573242D-02-0.000000000000D+00 0.000000000000D+00
     1.355996923828D+04 2.304620742798D-01-9.313225746155D-10 6.000000000000D+00
     1.317745117188D+03-3.568662643433D+00-9.313225746155D-10 0.000000000000D+00
R12 2022 01 25 02 15 00 2.977754920721D-04 3.637978807092D-12 1.800000000000D+05
    -1.718663574219D+03 1.373567581177D-01 1.862645149231D-09 0.000000000000D+00
     2.500741503906D+04-6.407680511475D-01 0.000000000000D+00-1.000000000000D+00
     4.676348632813D+03 3.494055747986D+00-1.862645149231D-09 0.000000000000D+00
R01 2022 01 25 02 15 00 7.098540663719D-06-0.000000000000D+00 1.800000000000D+05
    -1.165667236328D+04-1.773431777954D+00 0.000000000000D+00 0.000000000000D+00
     1.628947998047D+04 1.242319107056D+00-9.313225746155D-10 1.000000000000D+00
     1.579961523438D+04-2.588177680969D+00-1.862645149231D-09 0.000000000000D+00
R10 2022 01 25 02 15 00-7.920153439045D-05-0.000000000000D+00 1.800000000000D+05
    -1.083421191406D+04-1.348304748535D-01-9.313225746155D-10 0.000000000000D+00
    -6.326433105469D+03-3.039594650269D+00-1.862645149231D-09-7.000000000000D+00
     2.220840771484D+04-9.237709045410D-01-1.862645149231D-09 0.000000000000D+00
R13 2022 01 25 02 15 00-1.746509224176D-05-0.000000000000D+00 1.810800000000D+05
     6.379201171875D+03 1.810665130615D-01 1.862645149231D-09 0.000000000000D+00
     2.165328613281D+04 1.619944572449D+00 1.862645149231D-09-2.000000000000D+00
    -1.189282714844D+04 3.052342414856D+00 0.000000000000D+00 0.000000000000D+00
R02 2022 01 25 02 45 00 5.075680091977D-04 9.094947017729D-13 1.818000000000D+05
     2.700284179688D+03-2.420586585999D+00 9.313225746155D-10 0.000000000000D+00
     1.143086572266D+04 1.929616928101D+00-0.000000000000D+00-4.000000000000D+00
     2.267518017578D+04-6.916856765747D-01-2.793967723846D-09 0.000000000000D+00
R08 2022 01 25 02 45 00-6.322935223579D-05-0.000000000000D+00 1.818000000000D+05
    -2.099821972656D+04 6.513681411743D-01-9.313225746155D-10 0.000000000000D+00
     1.351667138672D+04-3.098821640015D-01-9.313225746155D-10 6.000000000000D+00
    -5.073708496094D+03-3.486705780029D+00-0.000000000000D+00 0.000000000000D+00
R12 2022 01 25 02 45 00 2.977820113301D-04 3.637978807092D-12 1.818000000000D+05
    -1.639896972656D+03-8.654403686523D-02 9.313225746155D-10 0.000000000000D+00
     2.309200439453D+04-1.466726303101D+00-0.000000000000D+00-1.000000000000D+00
     1.070335253906D+04 3.159134864807D+00-1.862645149231D-09 0.000000000000D+00
R01 2022 01 25 02 45 00 7.098540663719D-06-0.000000000000D+00 1.818000000000D+05
    -1.418530468750D+04-1.031400680542D+00 0.000000000000D+00 0.000000000000D+00
     1.837180371094D+04 1.027108192444D+00-9.313225746155D-10 1.000000000000D+00
     1.059053076172D+04-3.162126541138D+00-1.862645149231D-09 0.000000000000D+00
